
    {
        "ARG_OF_PERICENTER": 74.7396,
        "BSTAR": 0.00011103237,
        "CLASSIFICATION_TYPE": "U",
        "ECCENTRICITY": 0.00022103,
        "ELEMENT_SET_NO": 999,
        "EPHEMERIS_TYPE": 0,
        "EPOCH": "2026-05-21T22:09:09.943200",
        "INCLINATION": 97.5852,
        "MEAN_ANOMALY": 285.4068,
        "MEAN_MOTION": 14.93639939,
        "MEAN_MOTION_DDOT": 0,
        "MEAN_MOTION_DOT": 1.118e-05,
        "NORAD_CAT_ID": 40013,
        "OBJECT_ID": "2014-033D",
        "OBJECT_NAME": "DEIMOS-2",
        "RA_OF_ASC_NODE": 17.3309,
        "REV_AT_EPOCH": 63380
    },
    {
        "ARG_OF_PERICENTER": 81.7705,
        "BSTAR": 9.4590919e-05,
        "CLASSIFICATION_TYPE": "U",
        "ECCENTRICITY": 0.00343828,
        "ELEMENT_SET_NO": 999,
        "EPHEMERIS_TYPE": 0,
        "EPOCH": "2026-05-21T21:54:11.199168",
        "INCLINATION": 97.6397,
        "MEAN_ANOMALY": 278.7408,
        "MEAN_MOTION": 14.85327401,
        "MEAN_MOTION_DDOT": 0,
        "MEAN_MOTION_DOT": 7.69e-06,
        "NORAD_CAT_ID": 40015,
        "OBJECT_ID": "2014-033F",
        "OBJECT_NAME": "HODOYOSHI-3",
        "RA_OF_ASC_NODE": 306.0159,
        "REV_AT_EPOCH": 64372
    },
    {
        "ARG_OF_PERICENTER": 79.9903,
        "BSTAR": 3.4148275e-05,
        "CLASSIFICATION_TYPE": "U",
        "ECCENTRICITY": 0.00012673,
        "ELEMENT_SET_NO": 999,
        "EPHEMERIS_TYPE": 0,
        "EPOCH": "2026-05-21T22:48:04.750272",
        "INCLINATION": 98.0634,
        "MEAN_ANOMALY": 280.1441,
        "MEAN_MOTION": 14.60931241,
        "MEAN_MOTION_DDOT": 0,
        "MEAN_MOTION_DOT": 1.22e-06,
        "NORAD_CAT_ID": 40053,
        "OBJECT_ID": "2014-034A",
        "OBJECT_NAME": "SPOT 7",
        "RA_OF_ASC_NODE": 205.1158,
        "REV_AT_EPOCH": 63330
    },
    {
        "ARG_OF_PERICENTER": 17.8423,
        "BSTAR": 9.7370059e-05,
        "CLASSIFICATION_TYPE": "U",
        "ECCENTRICITY": 0.00059335,
        "ELEMENT_SET_NO": 999,
        "EPHEMERIS_TYPE": 0,
        "EPOCH": "2026-05-21T19:58:19.323840",
        "INCLINATION": 98.3823,
        "MEAN_ANOMALY": 342.2999,
        "MEAN_MOTION": 14.87947278,
        "MEAN_MOTION_DDOT": 0,
        "MEAN_MOTION_DOT": 8.31e-06,
        "NORAD_CAT_ID": 40072,
        "OBJECT_ID": "2014-037D",
        "OBJECT_NAME": "SKYSAT-B",
        "RA_OF_ASC_NODE": 99.2993,
        "REV_AT_EPOCH": 64204
    },
    {
        "ARG_OF_PERICENTER": 67.5524,
        "BSTAR": 6.8105744e-05,
        "CLASSIFICATION_TYPE": "U",
        "ECCENTRICITY": 0.00026064,
        "ELEMENT_SET_NO": 999,
        "EPHEMERIS_TYPE": 0,
        "EPOCH": "2026-05-21T21:19:36.152832",
        "INCLINATION": 97.857,
        "MEAN_ANOMALY": 292.5966,
        "MEAN_MOTION": 14.84971375,
        "MEAN_MOTION_DDOT": 0,
        "MEAN_MOTION_DOT": 5.27e-06,
        "NORAD_CAT_ID": 40115,
        "OBJECT_ID": "2014-048A",
        "OBJECT_NAME": "WORLDVIEW-3 (WV-3)",
        "RA_OF_ASC_NODE": 217.0846,
        "REV_AT_EPOCH": 63800
    },
    {
        "ARG_OF_PERICENTER": 329.1352,
        "BSTAR": 3.5562559e-05,
        "CLASSIFICATION_TYPE": "U",
        "ECCENTRICITY": 0.00065189,
        "ELEMENT_SET_NO": 999,
        "EPHEMERIS_TYPE": 0,
        "EPOCH": "2026-05-21T23:02:10.661568",
        "INCLINATION": 98.0115,
        "MEAN_ANOMALY": 30.9476,
        "MEAN_MOTION": 14.80867451,
        "MEAN_MOTION_DDOT": 0,
        "MEAN_MOTION_DOT": 2.21e-06,
        "NORAD_CAT_ID": 40118,
        "OBJECT_ID": "2014-049A",
        "OBJECT_NAME": "GAOFEN-2",
        "RA_OF_ASC_NODE": 206.1902,
        "REV_AT_EPOCH": 63535
    },
    {
        "ARG_OF_PERICENTER": 172.3916,
        "BSTAR": 0.00017408964,
        "CLASSIFICATION_TYPE": "U",
        "ECCENTRICITY": 0.00083521,
        "ELEMENT_SET_NO": 999,
        "EPHEMERIS_TYPE": 0,
        "EPOCH": "2026-05-21T22:28:00.706656",
        "INCLINATION": 97.1489,
        "MEAN_ANOMALY": 187.7451,
        "MEAN_MOTION": 15.25935953,
        "MEAN_MOTION_DDOT": 0,
        "MEAN_MOTION_DOT": 4.402e-05,
        "NORAD_CAT_ID": 40143,
        "OBJECT_ID": "2014-053A",
        "OBJECT_NAME": "YAOGAN-21",
        "RA_OF_ASC_NODE": 183.3043,
        "REV_AT_EPOCH": 65095
    },
    {
        "ARG_OF_PERICENTER": 246.9784,
        "BSTAR": -2.3585615e-05,
        "CLASSIFICATION_TYPE": "U",
        "ECCENTRICITY": 0.00058117,
        "ELEMENT_SET_NO": 999,
        "EPHEMERIS_TYPE": 0,
        "EPOCH": "2026-05-21T20:55:42.459744",
        "INCLINATION": 100.769,
        "MEAN_ANOMALY": 113.0714,
        "MEAN_MOTION": 13.15530363,
        "MEAN_MOTION_DDOT": 0,
        "MEAN_MOTION_DOT": -5.6e-07,
        "NORAD_CAT_ID": 40275,
        "OBJECT_ID": "2014-063A",
        "OBJECT_NAME": "YAOGAN-22",
        "RA_OF_ASC_NODE": 292.7118,
        "REV_AT_EPOCH": 55635
    },
    {
        "ARG_OF_PERICENTER": 214.9767,
        "BSTAR": 0.00020535304,
        "CLASSIFICATION_TYPE": "U",
        "ECCENTRICITY": 0.00027706,
        "ELEMENT_SET_NO": 999,
        "EPHEMERIS_TYPE": 0,
        "EPOCH": "2026-05-21T22:49:30.484992",
        "INCLINATION": 97.3448,
        "MEAN_ANOMALY": 145.1287,
        "MEAN_MOTION": 15.19662366,
        "MEAN_MOTION_DDOT": 0,
        "MEAN_MOTION_DOT": 4.313e-05,
        "NORAD_CAT_ID": 40298,
        "OBJECT_ID": "2014-070A",
        "OBJECT_NAME": "ASNARO",
        "RA_OF_ASC_NODE": 218.7689,
        "REV_AT_EPOCH": 64002
    },
    {
        "ARG_OF_PERICENTER": 353.6892,
        "BSTAR": 1.3748945e-05,
        "CLASSIFICATION_TYPE": "U",
        "ECCENTRICITY": 0.00137828,
        "ELEMENT_SET_NO": 999,
        "EPHEMERIS_TYPE": 0,
        "EPOCH": "2026-05-21T22:02:12.928416",
        "INCLINATION": 98.1458,
        "MEAN_ANOMALY": 6.4141,
        "MEAN_MOTION": 14.76182584,
        "MEAN_MOTION_DDOT": 0,
        "MEAN_MOTION_DOT": 4.2e-07,
        "NORAD_CAT_ID": 40310,
        "OBJECT_ID": "2014-072A",
        "OBJECT_NAME": "YAOGAN-24",
        "RA_OF_ASC_NODE": 279.0392,
        "REV_AT_EPOCH": 61984
    },
    {
        "ARG_OF_PERICENTER": 94.2575,
        "BSTAR": 2.561316e-06,
        "CLASSIFICATION_TYPE": "U",
        "ECCENTRICITY": 0.00021059,
        "ELEMENT_SET_NO": 999,
        "EPHEMERIS_TYPE": 0,
        "EPOCH": "2026-05-21T23:14:48.234912",
        "INCLINATION": 98.3539,
        "MEAN_ANOMALY": 265.8852,
        "MEAN_MOTION": 14.35500385,
        "MEAN_MOTION_DDOT": 0,
        "MEAN_MOTION_DOT": -3.5e-07,
        "NORAD_CAT_ID": 40336,
        "OBJECT_ID": "2014-079A",
        "OBJECT_NAME": "CBERS 4",
        "RA_OF_ASC_NODE": 199.6201,
        "REV_AT_EPOCH": 60019
    },
    {
        "ARG_OF_PERICENTER": 126.0452,
        "BSTAR": 0.00032913235,
        "CLASSIFICATION_TYPE": "U",
        "ECCENTRICITY": 0.00062194,
        "ELEMENT_SET_NO": 999,
        "EPHEMERIS_TYPE": 0,
        "EPOCH": "2026-05-21T22:23:20.023296",
        "INCLINATION": 97.0655,
        "MEAN_ANOMALY": 234.1375,
        "MEAN_MOTION": 15.46189511,
        "MEAN_MOTION_DDOT": 0,
        "MEAN_MOTION_DOT": 0.00016096,
        "NORAD_CAT_ID": 40362,
        "OBJECT_ID": "2014-088A",
        "OBJECT_NAME": "YAOGAN-26",
        "RA_OF_ASC_NODE": 142.7796,
        "REV_AT_EPOCH": 63364
    },
    {
        "ARG_OF_PERICENTER": 86.3308,
        "BSTAR": 5.7580419e-05,
        "CLASSIFICATION_TYPE": "U",
        "ECCENTRICITY": 0.00013137,
        "ELEMENT_SET_NO": 999,
        "EPHEMERIS_TYPE": 0,
        "EPOCH": "2026-05-21T23:02:15.466272",
        "INCLINATION": 98.1278,
        "MEAN_ANOMALY": 273.8044,
        "MEAN_MOTION": 14.63340042,
        "MEAN_MOTION_DDOT": 0,
        "MEAN_MOTION_DOT": 2.5e-06,
        "NORAD_CAT_ID": 40376,
        "OBJECT_ID": "2015-003A",
        "OBJECT_NAME": "SMAP",
        "RA_OF_ASC_NODE": 149.4263,
        "REV_AT_EPOCH": 60378
    }