DEIMOS-2                
1 40013U 14033D   26141.92303175  .00001118  00000+0  11103-3 0  9992
2 40013  97.5852  17.3309 0002210  74.7396 285.4068 14.93639939633809
HODOYOSHI-3             
1 40015U 14033F   26141.91262962  .00000769  00000+0  94591-4 0  9995
2 40015  97.6397 306.0159 0034382  81.7705 278.7408 14.85327401643728
SPOT 7                  
1 40053U 14034A   26141.95005498  .00000122  00000+0  34148-4 0  9996
2 40053  98.0634 205.1158 0001267  79.9903 280.1441 14.60931241633305
SKYSAT-B                
1 40072U 14037D   26141.83216810  .00000831  00000+0  97370-4 0  9992
2 40072  98.3823  99.2993 0005933  17.8423 342.2999 14.87947278642045
WORLDVIEW-3 (WV-3)      
1 40115U 14048A   26141.88861288  .00000527  00000+0  68106-4 0  9999
2 40115  97.8570 217.0846 0002606  67.5524 292.5966 14.84971375638005
GAOFEN-2                
1 40118U 14049A   26141.95984562  .00000221  00000+0  35563-4 0  9994
2 40118  98.0115 206.1902 0006518 329.1352  30.9476 14.80867451635350
YAOGAN-21               
1 40143U 14053A   26141.93611929  .00004402  00000+0  17409-3 0  9992
2 40143  97.1489 183.3043 0008352 172.3916 187.7451 15.25935953650956
YAOGAN-22               
1 40275U 14063A   26141.87201921 -.00000056  00000+0 -23586-4 0  9996
2 40275 100.7690 292.7118 0005811 246.9784 113.0714 13.15530363556359
ASNARO                  
1 40298U 14070A   26141.95104728  .00004313  00000+0  20535-3 0  9993
2 40298  97.3448 218.7689 0002770 214.9767 145.1287 15.19662366640028
YAOGAN-24               
1 40310U 14072A   26141.91820519  .00000042  00000+0  13749-4 0  9994
2 40310  98.1458 279.0392 0013782 353.6892   6.4141 14.76182584619844
CBERS 4                 
1 40336U 14079A   26141.96861383 -.00000035  00000+0  25613-5 0  9995
2 40336  98.3539 199.6201 0002105  94.2575 265.8852 14.35500385600199
YAOGAN-26               
1 40362U 14088A   26141.93287064  .00016096  00000+0  32913-3 0  9991
2 40362  97.0655 142.7796 0006219 126.0452 234.1375 15.46189511633641
SMAP                    
1 40376U 15003A   26141.95990123  .00000250  00000+0  57580-4 0  9996
2 40376  98.1278 149.4263 0001313  86.3308 273.8044 14.63340042603781
